STARLINK-31980          
1 59962C 24107T   26099.19423611 -.00038897  00000+0 -13110-2 0   993
2 59962  53.1589 283.9352 0000415  87.7407 338.3778 15.30210655    17
STARLINK-31991          
1 59963C 24107U   26099.16576389 -.00040306  00000+0 -13584-2 0   995
2 59963  53.1598 283.9535 0001118  85.2508 242.0888 15.30213263    18
STARLINK-31979          
1 59964C 24107V   26099.18312500 -.00034800  00000+0 -11729-2 0   992
2 59964  53.1591 283.9523 0001075  86.6443 295.6831 15.30207690    13
STARLINK-31978          
1 60016C 24111A   26099.12895833 -.00013874  00000+0 -46751-3 0   998
2 60016  53.1578 294.5648 0000739  89.6164 116.2079 15.30205335    19
STARLINK-31987          
1 60017C 24111B   26099.13451389 -.00017640  00000+0 -59454-3 0   993
2 60017  53.1583 294.4678 0001024  86.6343 184.7187 15.30200514    16
STARLINK-31984          
1 60018C 24111C   26099.19562500 -.00070127  00000+0 -23622-2 0   994
2 60018  53.1589 294.1016 0000762  88.6170 200.2961 15.30245967    19
STARLINK-31986          
1 60019C 24111D   26099.10604167 -.00005706  00000+0 -19232-3 0   996
2 60019  53.1602 294.4125 0001258  79.2778 128.2118 15.30194341    13
STARLINK-31883          
1 60020C 24111E   26099.12201389 -.00008422  00000+0 -28386-3 0   997
2 60020  53.1579 294.5609 0000890  77.9844 107.0171 15.30192978    14
STARLINK-31967          
1 60021C 24111F   26099.11298611 -.00007772  00000+0 -26192-3 0   991
2 60021  53.1580 294.0242 0001126  86.6732 339.3990 15.30198757    11
STARLINK-31982          
1 60022C 24111G   26099.16229167 -.00026375  00000+0 -88906-3 0   998
2 60022  53.1577 293.7327 0001118  77.6609 295.0700 15.30200702    13
STARLINK-31992          
1 60023C 24111H   26099.10326389 -.00003277  00000+0 -11046-3 0   994
2 60023  53.1603 294.3734 0001137 102.0786 119.0496 15.30187463    18
STARLINK-31990          
1 60024C 24111J   26099.10604167 -.00010775  00000+0 -36309-3 0   998
2 60024  53.1598 294.3118 0001204  84.1132 175.7077 15.30202347    11
STARLINK-31939          
1 60026C 24111L   26099.12201389 -.00013117  00000+0 -44199-3 0   990
2 60026  53.1583 294.0871 0001062  82.5723 340.9046 15.30204437    14
STARLINK-32012          
1 60027C 24111M   26099.17270833 -.00043969  00000+0 -14817-2 0   997
2 60027  53.1586 293.8813 0001253  89.2795 236.1639 15.30217487    19
STARLINK-32008          
1 60028C 24111N   26099.18104167 -.00030438  00000+0 -10259-2 0   998
2 60028  53.1593 293.8883 0001192  80.5691 267.5525 15.30206312    13
STARLINK-32006          
1 60029C 24111P   26099.19354167 -.00028486  00000+0 -96033-3 0   992
2 60029  53.1602 293.9392 0000684  78.2330 286.4202 15.30198337    19
STARLINK-32011          
1 60030C 24111Q   26099.13173611 -.00184310  00000+0 -62092-2 0   997
2 60030  53.1580 293.8970 0001421 105.7439  86.9745 15.30297565    11
STARLINK-31878          
1 60031C 24111R   26099.10395833 -.00040876  00000+0 -13776-2 0   990
2 60031  53.1569 242.5800 0001142  88.2507  50.8777 15.30213501    16
STARLINK-32017          
1 60032C 24111S   26099.11645833 -.00014482  00000+0 -48721-3 0   993
2 60032  53.1601 294.3628 0000813  90.7908 185.7177 15.30258980    16
STARLINK-32005          
1 60034C 24111U   26099.10395833 -.00006405  00000+0 -21587-3 0   993
2 60034  53.1597 294.2845 0001181  86.0750 179.7260 15.30195287    10
STARLINK-31981          
1 60035C 24111V   26099.12548611 -.00021119  00000+0 -71163-3 0   994
2 60035  53.1594 294.3900 0001219  82.3411 197.4107 15.30209657    10
STARLINK-31985          
1 60036C 24111W   26099.14493056 -.00025928  00000+0 -87375-3 0   993
2 60036  53.1598 294.2640 0001187  79.0269 325.3544 15.30208943    17
STARLINK-31918          
1 60037C 24111X   26099.15673611 -.00035184  00000+0 -11858-2 0   999
2 60037  53.1579 293.8885 0001168  89.4650 182.8503 15.30208824    10
STARLINK-11129 [DTC]    
1 60038C 24112A   26099.15187500  .00012489  00000+0  10273-3 0   990
2 60038  53.1572 116.4321 0001318 102.0843 161.6527 15.69736443    18
STARLINK-11140 [DTC]    
1 60039C 24112B   26099.18381944 -.00005472  00000+0 -45060-4 0   991
2 60039  53.1570 116.2177 0001202  94.8176  17.2436 15.69721647    18
STARLINK-11122 [DTC]    
1 60040C 24112C   26099.10951389  .00052765  00000+0  43493-3 0   993
2 60040  53.1569 116.5267 0001468 105.5281 334.1941 15.69666302    10
STARLINK-11149 [DTC]    
1 60041C 24112D   26099.19076389 -.00058020  00000+0 -47778-3 0   993
2 60041  53.1572 116.0705 0001215  96.5162 110.2818 15.69745996    17
STARLINK-11120 [DTC]    
1 60042C 24112E   26099.18312500 -.00040898  00000+0 -33677-3 0   998
2 60042  53.1572 116.0513 0001228  87.8511 103.5008 15.69738267    19
STARLINK-11086 [DTC]    
1 60043C 24112F   26099.11854167 -.00098504  00000+0 -81019-3 0   992
2 60043  53.1569 116.3126 0001560 121.3450  92.5713 15.69794135    10
STARLINK-11148 [DTC]    
1 60044C 24112G   26099.11645833  .00050615  00000+0  41679-3 0   998
2 60044  53.1568 116.2658 0001185  95.0766 134.8047 15.69692380    18
STARLINK-11116 [DTC]    
1 60045C 24112H   26099.19006944  .00003522  00000+0  29008-4 0   999
2 60045  53.1567 115.8465 0001300  73.5846 240.2521 15.69711763    14
STARLINK-11155 [DTC]    
1 60046C 24112J   26099.12618056  .00030765  00000+0  25341-3 0   990
2 60046  53.1567 116.1038 0001206 103.2938 237.0416 15.69695136    15
STARLINK-11163 [DTC]    
1 60047C 24112K   26099.10326389  .00061298  00000+0  50499-3 0   991
2 60047  53.1567 116.1600 0001218  79.9526 158.5557 15.69675775    16
STARLINK-11135 [DTC]    
1 60048C 24112L   26099.16715278  .00015410  00000+0  12691-3 0   994
2 60048  53.1573 115.6924 0001198 102.2057 220.7219 15.69707671    11
STARLINK-11151 [DTC]    
1 60049C 24112M   26099.17895833 -.00012175  00000+0 -10024-3 0   997
2 60049  53.1573 115.7304 0001034  72.5567 261.6582 15.69727630    13
STARLINK-11137 [DTC]    
1 60050C 24112N   26099.11784722  .00049187  00000+0  40495-3 0   993
2 60050  53.1573 115.9742 0001239  99.3557 277.0581 15.69697625    16
STARLINK-31811          
1 60051C 24112P   26099.10534722 -.00000475  00000+0 -15829-4 0   999
2 60051  53.1599 297.0408 0000829  63.0178 122.1616 15.30589100    12
STARLINK-31775          
1 60052C 24112Q   26099.12687500 -.00010323  00000+0 -34819-3 0   997
2 60052  53.1598 296.8577 0001211  81.9639 266.2231 15.30171411    18
STARLINK-31793          
1 60053C 24112R   26099.20395833 -.00064242  00000+0 -21641-2 0   999
2 60053  53.1602 296.5691 0001169  85.8702 292.1328 15.30240492    16
STARLINK-31735          
1 60054C 24112S   26099.13590278 -.00016094  00000+0 -54233-3 0   998
2 60054  53.1589 296.7449 0001193  82.9104 349.8157 15.30205982    10
STARLINK-31788          
1 60055C 24112T   26099.19215278 -.00034544  00000+0 -11641-2 0   994
2 60055  53.1586 296.4478 0000919  82.6627 317.5513 15.30214280    18
STARLINK-31825          
1 60056C 24112U   26099.14909722 -.00024148  00000+0 -81359-3 0   997
2 60056  53.1594 296.7214 0001340  86.2013  41.7873 15.30214182    13
STARLINK-31437          
1 60057C 24112V   26099.14284722 -.00040306  00000+0 -13561-2 0   997
2 60057  53.1601 296.8179 0001048  86.2087 332.4473 15.30268384    19
STARLINK-11181 [DTC]    
1 60059C 24113A   26099.15048611 -.00026201  00000+0 -21587-3 0   992
2 60059  53.1564  41.1848 0001276  81.9899 277.9061 15.69717608    15
STARLINK-11176 [DTC]    
1 60060C 24113B   26099.09701389 -.00039909  00000+0 -32879-3 0   990
2 60060  53.1563  41.3915 0001201  99.5870 345.6935 15.69725466    19
STARLINK-11167 [DTC]    
1 60061C 24113C   26099.11506944 -.00022465  00000+0 -18506-3 0   994
2 60061  53.1565  41.2455 0001123  80.9578 134.1622 15.69719088    19
STARLINK-11166 [DTC]    
1 60062C 24113D   26099.17826389 -.00000573  00000+0 -47222-5 0   994
2 60062  53.1568  40.8767 0001273  74.5326 165.6434 15.69702652    19
STARLINK-11165 [DTC]    
1 60063C 24113E   26099.16020833 -.00050915  00000+0 -41946-3 0   994
2 60063  53.1567  40.9085 0001283  75.5274  90.2912 15.69730901    19
STARLINK-11169 [DTC]    
1 60064C 24113F   26099.17548611 -.00033963  00000+0 -27979-3 0   999
2 60064  53.1568  40.7765 0001285  73.6174 206.3159 15.69723913    12
STARLINK-11102 [DTC]    
1 60065C 24113G   26099.13729167 -.00070892  00000+0 -58396-3 0   992
2 60065  53.1566  40.9081 0001202  78.4099  13.2983 15.69744902    13
STARLINK-11141 [DTC]    
1 60066C 24113H   26099.12965278 -.00041680  00000+0 -34337-3 0   999
2 60066  53.1566  40.8890 0001138  74.7896   1.4715 15.69727289    14
STARLINK-11153 [DTC]    
1 60067C 24113J   26099.16854167 -.00039218  00000+0 -32330-3 0   993
2 60067  53.1567  41.3755 0001234  97.3233 225.9928 15.69710483    12
STARLINK-11170 [DTC]    
1 60068C 24113K   26099.17201389  .00072498  00000+0  59610-3 0   992
2 60068  53.1572  41.3011 0001248  73.5486 297.1730 15.69716951    13
STARLINK-11171 [DTC]    
1 60069C 24113L   26099.13590278 -.00074788  00000+0 -61614-3 0   990
2 60069  53.1569  41.4218 0001054  73.3055 120.9244 15.69743365    17
STARLINK-11186 [DTC]    
1 60070C 24113M   26099.13937500 -.00036970  00000+0 -30466-3 0   997
2 60070  53.1569  41.3476 0001257  75.8625 165.7509 15.69718105    14
STARLINK-11184 [DTC]    
1 60071C 24113N   26099.10326389 -.00043088  00000+0 -35498-3 0   990
2 60071  53.1566  41.5068 0001193  74.3704 350.7594 15.69727332    14
STARLINK-32032          
1 60077C 24113U   26099.19909722 -.00088428  00000+0 -29824-2 0   995
2 60077  53.1586 217.1119 0001318 106.1947 307.5560 15.30213055    15
STARLINK-31441          
1 60091C 24117A   26099.14631944 -.00061303  00000+0 -20660-2 0   990
2 60091  53.1593 255.5742 0001183  84.2649 168.8049 15.30225008    13
STARLINK-32044          
1 60092C 24117B   26099.13381944 -.00037726  00000+0 -12713-2 0   994
2 60092  53.1594 255.4134 0001197  87.2884 207.4014 15.30215071    19
